[{"OBJECT_NAME":"STARLINK-2547","OBJECT_ID":"2021-036L","EPOCH":"2026-03-09T07:08:45.311424","MEAN_MOTION":15.30198344,"ECCENTRICITY":0.00014543,"INCLINATION":53.1618,"RA_OF_ASC_NODE":77.2705,"ARG_OF_PERICENTER":83.1642,"MEAN_ANOMALY":276.9524,"EPHEMERIS_TYPE":0,"CLASSIFICATION_TYPE":"U","NORAD_CAT_ID":48286,"ELEMENT_SET_NO":999,"REV_AT_EPOCH":26834,"BSTAR":2.5494918e-5,"MEAN_MOTION_DOT":3.96e-6,"MEAN_MOTION_DDOT":0},{"OBJECT_NAME":"IRIDIUM 45","OBJECT_ID":"1997-082A","EPOCH":"2026-03-09T19:43:04.689120","MEAN_MOTION":15.36676082,"ECCENTRICITY":0.00899413,"INCLINATION":86.3479,"RA_OF_ASC_NODE":277.5722,"ARG_OF_PERICENTER":47.6509,"MEAN_ANOMALY":313.2314,"EPHEMERIS_TYPE":0,"CLASSIFICATION_TYPE":"U","NORAD_CAT_ID":25104,"ELEMENT_SET_NO":999,"REV_AT_EPOCH":49262,"BSTAR":0.00064625537,"MEAN_MOTION_DOT":0.00026618,"MEAN_MOTION_DDOT":0}]
